SHIJIAN-25 (SJ-25)      
1 62485U 25002A   26176.42571132 -.00000344  00000+0  00000+0 0  9991
2 62485   5.1328  61.1186 0051294 174.7504 318.1709  1.00281333  5441
TJS-14                  
1 62804U 25017A   26177.24155457  .00000127  00000+0  00000+0 0  9999
2 62804   0.7618 296.2587 0001130 294.8704 148.6068  1.00268990  5364
SPAINSAT NG I           
1 62852U 25021A   26176.95849870  .00000162  00000+0  00000+0 0  9992
2 62852   0.0186   4.2156 0000401 134.5162 149.3977  1.00271389  4077
QZS-6 (MICHIBIKI-6)     
1 62876U 25023A   26176.60391804 -.00000223  00000+0  00000+0 0  9990
2 62876   0.0573 280.3752 0001985 187.0073 114.2719  1.00273214  5035
ZHONGXING-10R           
1 63075U 25036A   26176.59836588 -.00000341  00000+0  00000+0 0  9998
2 63075   0.0696 251.1623 0004185 248.2559 100.2216  1.00268932  5049
TJS-15                  
1 63157U 25045A   26176.16919925 -.00000255  00000+0  00000+0 0  9993
2 63157   0.2998  85.5640 0004677 302.1765  40.8403  1.00268454  4832
TIANLIAN 2-04           
1 63361U 25062A   26177.18255286 -.00000120  00000+0  00000+0 0  9996
2 63361   4.3514 274.3073 0031186  10.2593 135.5277  1.00272031  4698
TJS-16                  
1 63397U 25064A   26176.74020183 -.00000095  00000+0  00000+0 0  9995
2 63397   1.1203  81.4288 0003250 297.9133 321.6200  1.00272248  4477
TJS-17                  
1 63524U 25073A   26176.69925266 -.00000060  00000+0  00000+0 0  9999
2 63524   1.0862  82.6426 0001867 310.5861 296.8969  1.00270793  4375
TIANLIAN 2-05           
1 63662U 25084A   26175.81602639  .00000137  00000+0  00000+0 0  9997
2 63662   4.4314 279.7471 0003382 153.9556 153.4019  1.00274890  4455
TJS-19                  
1 63924U 25097A   26176.73614396 -.00000263  00000+0  00000+0 0  9998
2 63924   3.2716 317.5873 0003002 239.9657 122.5839  1.00274465  4233
CHINASAT 3B             
1 64062U 25106A   26176.80530961 -.00000035  00000+0  00000+0 0  9993
2 64062   0.0416 154.3161 0003496 332.9592 243.8697  1.00270818  4142
SXM-10                  
1 64290U 25122A   26175.71773956 -.00000008  00000+0  00000+0 0  9996
2 64290   0.0207  35.0737 0001809 336.6407  43.3689  1.00271244  3753
COSMOS 2589             
1 64467U 25131A   26176.60420108 -.00000280  00000+0  00000+0 0  9991
2 64467   0.0454  96.7993 0001106 349.5781 142.8390  1.00270322  3647
CHINASAT 9C             
1 64470U 25132A   26177.11360247 -.00000237  00000+0  00000+0 0  9992
2 64470   0.0325  95.1586 0003358 356.3473 315.8398  1.00272269  4232
MTG-S1                  
1 64723U 25143A   26175.74071355  .00000023  00000+0  00000+0 0  9993
2 64723   0.5970 340.6178 0000585 288.6722 269.7793  1.00400949  3493
DROR 1                  
1 64784U 25148A   26177.23713455 -.00000023  00000+0  00000+0 0  9996
2 64784   0.0118 316.3078 0002745  82.0054 317.3974  1.00271782  3382
SHIYAN-29               
1 65486U 25196A   26177.04269850 -.00000279  00000+0  00000+0 0  9996
2 65486  28.8309  18.4237 0012697 175.1917 190.8153  1.00283645  2976
NUSANTARA LIMA (NUSANT*)
1 65588U 25205A   26176.04830759 -.00000348  00000+0  00000+0 0  9998
2 65588   0.0367 148.1537 0000315 353.9981 261.2923  1.00269667  2796
TJS-20                  
1 66142U 25238A   26176.96508541  .00000040  00000+0  00000+0 0  9991
2 66142   5.4495 299.5204 0004648 163.3647 221.0385  1.00270224  2428
CMS-03 (GSAT-7R)        
1 66311U 25249B   26177.18125285 -.00000065  00000+0  00000+0 0  9994
2 66311   0.0693 264.1310 0002191 158.4895 350.9074  1.00269326  2433
VIASAT-3 F2             
1 66454U 25261A   26175.82000622 -.00000225  00000+0  00000+0 0  9990
2 66454   0.0049 139.4651 0000235  46.4657 303.2621  1.00272510  2873
SHIJIAN-28 (SJ-28)      
1 66549U 25277A   26177.04720519 -.00000344  00000+0  00000+0 0  9994
2 66549   4.5153 271.9892 0000805  45.4376  90.5824  1.00273572  2243
TJS-22                  
1 66990U 25290A   26176.85282074  .00000006  00000+0  00000+0 0  9990
2 66990   1.5079 286.6675 0002259 322.1401  38.6527  1.00272456  2117
TJS-23                  
1 67226U 25306A   26176.57895381  .00000030  00000+0  00000+0 0  9998
2 67226   5.5692 297.4432 0004779 180.5929 179.5701  1.00267762  1972
FENGYUN 4C              
1 67246U 25312A   26176.76526870 -.00000312  00000+0  00000+0 0  9996
2 67246   0.0549 156.0822 0000611 356.6040 169.7151  1.00271667  1866
SHIJIAN-29A (SJ-29A)    
1 67302U 25315A   26177.30233604 -.00000059  00000+0  00000+0 0  9991
2 67302   3.4209  94.8930 0003545  22.9364 338.5864  1.00271142  1718
SHIJIAN-29B (SJ-29B)    
1 67403U 25315C   26176.75331228 -.00000059  00000+0  00000+0 0  9992
2 67403   3.4186  94.8984 0004406  35.2079 128.1530  1.00270780  1776
ELEKTRO-L 5             
1 67756U 26028A   26177.02719940 -.00000087  00000+0  00000+0 0  9998
2 67756   0.2362 315.2920 0001773 182.7120 222.0063  1.00272170  1340
JAM-E JAM 1             
1 67757U 26028B   26177.24467458  .00000167  00000+0  00000+0 0  9995
2 67757   0.2411 305.3031 0000960 272.1819 179.1432  1.00281078  1210
ECHOSTAR 25             
1 68126U 26045A   26177.00225337 -.00000046  00000+0  00000+0 0  9994
2 68126   0.0136  15.1953 0001875  72.5039  77.2349  1.00271704  1089
TJS-24                  
1 69235U 26116A   26177.11316913 -.00000220  00000+0  00000+0 0  9992
2 69235   0.0399 113.0969 0000549 332.0366 320.1362  1.00271161   318
