OBJECT_NAME,OBJECT_ID,EPOCH,MEAN_MOTION,ECCENTRICITY,INCLINATION,RA_OF_ASC_NODE,ARG_OF_PERICENTER,MEAN_ANOMALY,EPHEMERIS_TYPE,CLASSIFICATION_TYPE,NORAD_CAT_ID,ELEMENT_SET_NO,REV_AT_EPOCH,BSTAR,MEAN_MOTION_DOT,MEAN_MOTION_DDOT
SHIJIAN-25 (SJ-25),2025-002A,2026-06-25T10:13:01.458048,1.00281333,.0051294,5.1328,61.1186,174.7504,318.1709,0,U,62485,999,544,0,-.344E-5,0
TJS-14,2025-017A,2026-06-26T05:47:50.314848,1.00268990,.00011308,0.7618,296.2587,294.8704,148.6068,0,U,62804,999,536,0,.127E-5,0
SPAINSAT NG I,2025-021A,2026-06-25T23:00:14.287680,1.00271389,.00004018,0.0186,4.2156,134.5162,149.3977,0,U,62852,999,407,0,.162E-5,0
QZS-6 (MICHIBIKI-6),2025-023A,2026-06-25T14:29:38.518656,1.00273214,.00019858,0.0573,280.3752,187.0073,114.2719,0,U,62876,999,503,0,-.223E-5,0
ZHONGXING-10R,2025-036A,2026-06-25T14:21:38.812032,1.00268932,.00041856,0.0696,251.1623,248.2559,100.2216,0,U,63075,999,504,0,-.341E-5,0
TJS-15,2025-045A,2026-06-25T04:03:38.815200,1.00268454,.0004677,0.2998,85.5640,302.1765,40.8403,0,U,63157,999,483,0,-.255E-5,0
TIANLIAN 2-04,2025-062A,2026-06-26T04:22:52.567104,1.00272031,.00311861,4.3514,274.3073,10.2593,135.5277,0,U,63361,999,469,0,-.12E-5,0
TJS-16,2025-064A,2026-06-25T17:45:53.438112,1.00272248,.000325,1.1203,81.4288,297.9133,321.6200,0,U,63397,999,447,0,-.95E-6,0
TJS-17,2025-073A,2026-06-25T16:46:55.429824,1.00270793,.0001867,1.0862,82.6426,310.5861,296.8969,0,U,63524,999,437,0,-.6E-6,0
TIANLIAN 2-05,2025-084A,2026-06-24T19:35:04.680096,1.00274890,.00033823,4.4314,279.7471,153.9556,153.4019,0,U,63662,999,445,0,.137E-5,0
TJS-19,2025-097A,2026-06-25T17:40:02.838144,1.00274465,.0003002,3.2716,317.5873,239.9657,122.5839,0,U,63924,999,423,0,-.263E-5,0
CHINASAT 3B,2025-106A,2026-06-25T19:19:38.750304,1.00270818,.00034968,0.0416,154.3161,332.9592,243.8697,0,U,64062,999,414,0,-.35E-6,0
SXM-10,2025-122A,2026-06-24T17:13:32.697984,1.00271244,.00018095,0.0207,35.0737,336.6407,43.3689,0,U,64290,999,375,0,-.8E-7,0
COSMOS 2589,2025-131A,2026-06-25T14:30:02.973312,1.00270322,.0001106,0.0454,96.7993,349.5781,142.8390,0,U,64467,999,364,0,-.28E-5,0
CHINASAT 9C,2025-132A,2026-06-26T02:43:35.253408,1.00272269,.00033586,0.0325,95.1586,356.3473,315.8398,0,U,64470,999,423,0,-.237E-5,0
MTG-S1,2025-143A,2026-06-24T17:46:37.650720,1.00400949,.00005853,0.5970,340.6178,288.6722,269.7793,0,U,64723,999,349,0,.23E-6,0
DROR 1,2025-148A,2026-06-26T05:41:28.425120,1.00271782,.00027457,0.0118,316.3078,82.0054,317.3974,0,U,64784,999,338,0,-.23E-6,0
SHIYAN-29,2025-196A,2026-06-26T01:01:29.150400,1.00283645,.0012697,28.8309,18.4237,175.1917,190.8153,0,U,65486,999,297,0,-.279E-5,0
NUSANTARA LIMA (NUSANTARA 5),2025-205A,2026-06-25T01:09:33.775776,1.00269667,.00003151,0.0367,148.1537,353.9981,261.2923,0,U,65588,999,279,0,-.348E-5,0
TJS-20,2025-238A,2026-06-25T23:09:43.379424,1.00270224,.00046482,5.4495,299.5204,163.3647,221.0385,0,U,66142,999,242,0,.4E-6,0
CMS-03 (GSAT-7R),2025-249B,2026-06-26T04:21:00.246240,1.00269326,.00021917,0.0693,264.1310,158.4895,350.9074,0,U,66311,999,243,0,-.65E-6,0
VIASAT-3 F2,2025-261A,2026-06-24T19:40:48.537408,1.00272510,.00002351,0.0049,139.4651,46.4657,303.2621,0,U,66454,999,287,0,-.225E-5,0
SHIJIAN-28 (SJ-28),2025-277A,2026-06-26T01:07:58.528416,1.00273572,.00008052,4.5153,271.9892,45.4376,90.5824,0,U,66549,999,224,0,-.344E-5,0
TJS-22,2025-290A,2026-06-25T20:28:03.711936,1.00272456,.00022591,1.5079,286.6675,322.1401,38.6527,0,U,66990,999,211,0,.6E-7,0
TJS-23,2025-306A,2026-06-25T13:53:41.609184,1.00267762,.00047792,5.5692,297.4432,180.5929,179.5701,0,U,67226,999,197,0,.3E-6,0
FENGYUN 4C,2025-312A,2026-06-25T18:21:59.215680,1.00271667,.00006116,0.0549,156.0822,356.6040,169.7151,0,U,67246,999,186,0,-.312E-5,0
SHIJIAN-29A (SJ-29A),2025-315A,2026-06-26T07:15:21.833856,1.00271142,.00035457,3.4209,94.8930,22.9364,338.5864,0,U,67302,999,171,0,-.59E-6,0
SHIJIAN-29B (SJ-29B),2025-315C,2026-06-25T18:04:46.180992,1.00270780,.00044064,3.4186,94.8984,35.2079,128.1530,0,U,67403,999,177,0,-.59E-6,0
ELEKTRO-L 5,2026-028A,2026-06-26T00:39:10.028160,1.00272170,.0001773,0.2362,315.2920,182.7120,222.0063,0,U,67756,999,134,0,-.87E-6,0
JAM-E JAM 1,2026-028B,2026-06-26T05:52:19.883712,1.00281078,.000096,0.2411,305.3031,272.1819,179.1432,0,U,67757,999,121,0,.167E-5,0
ECHOSTAR 25,2026-045A,2026-06-26T00:03:14.691168,1.00271704,.0001875,0.0136,15.1953,72.5039,77.2349,0,U,68126,999,108,0,-.46E-6,0
TJS-24,2026-116A,2026-06-26T02:42:57.812832,1.00271161,.00005492,0.0399,113.0969,332.0366,320.1362,0,U,69235,999,31,0,-.22E-5,0
